STARLINK-36301          
1 67932U 26037A   26083.50002314 -.01831707  00000+0 -30705-1 0  9993
2 67932  42.9997 108.6302 0001201 291.3431 224.6221 15.54385919  5493
STARLINK-36852          
1 67933U 26037B   26083.50002314  .00102460  00000+0  17350-2 0  9990
2 67933  42.9996 109.7471 0001454 271.7558 151.9043 15.50490767  5571
STARLINK-36861          
1 67934U 26037C   26083.50002314  .00108306  00000+0  18312-2 0  9995
2 67934  42.9996 108.8637 0001062 273.6687 147.5842 15.50506563  5575
STARLINK-36860          
1 67935U 26037D   26083.50002314  .00141723  00000+0  23826-2 0  9992
2 67935  43.0002 109.3552 0000887 305.6952 276.8025 15.50525250  5576
STARLINK-36848          
1 67936U 26037E   26083.50002314  .00100165  00000+0  16954-2 0  9992
2 67936  42.9998 109.4985 0001519 271.8771 252.1059 15.50512268  5575
STARLINK-36370          
1 67937U 26037F   26083.50002314  .00099469  00000+0  16841-2 0  9992
2 67937  43.0003 109.2857 0001738 288.2312 322.5563 15.50507917  5574
STARLINK-36371          
1 67938U 26037G   26083.50002314  .00100496  00000+0  17014-2 0  9999
2 67938  42.9998 109.0016 0001247 281.0011  83.6682 15.50504773  5577
STARLINK-36246          
1 67939U 26037H   26083.50002314  .00098619  00000+0  16696-2 0  9998
2 67939  43.0001 109.4229 0001331 290.6217 263.7145 15.50513983  5492
STARLINK-36907          
1 67940U 26037J   26083.50002314 -.02032497  00000+0 -36044-1 0  9994
2 67940  43.0000 108.6343 0000889 268.2518 245.1265 15.52658519  5576
STARLINK-36927          
1 67941U 26037K   26083.50002314  .00110443  00000+0  18668-2 0  9992
2 67941  42.9996 108.7955 0001066 265.0724 182.6528 15.50506119  5574
STARLINK-36914          
1 67942U 26037L   26083.50002314 -.01848954  00000+0 -28428-1 0  9995
2 67942  43.0001 108.4123 0001043 277.2835 325.9754 15.56733047  5572
STARLINK-36851          
1 67943U 26037M   26083.50002314  .00119650  00000+0  20233-2 0  9994
2 67943  42.9996 108.7615 0001432 311.8047 149.8942 15.50452849  5579
STARLINK-36892          
1 67944U 26037N   26083.50002314 -.00959766  00000+0 -17426-1 0  9996
2 67944  42.9996 108.6879 0001628 293.8554 197.7658 15.51251557  5570
STARLINK-36908          
1 67945U 26037P   26083.50002314 -.01929399  00000+0 -34299-1 0  9994
2 67945  43.0000 108.6128 0001192 281.4007 240.4203 15.52422711  5573
STARLINK-36909          
1 67946U 26037Q   26083.50002314 -.01845887  00000+0 -26177-1 0  9990
2 67946  43.0001 108.2371 0001207 281.2898  31.8337 15.58852559  5588
STARLINK-36920          
1 67947U 26037R   26083.50002314  .00136592  00000+0  22981-2 0  9994
2 67947  42.9999 108.9006 0001728 274.8965 129.8963 15.50525407  5580
