[{"OBJECT_NAME":"STARLINK-36301","OBJECT_ID":"2026-037A","EPOCH":"2026-03-24T12:00:01.999296","MEAN_MOTION":15.54385919,"ECCENTRICITY":0.0001201,"INCLINATION":42.9997,"RA_OF_ASC_NODE":108.6302,"ARG_OF_PERICENTER":291.3431,"MEAN_ANOMALY":224.6221,"EPHEMERIS_TYPE":0,"CLASSIFICATION_TYPE":"U","NORAD_CAT_ID":67932,"ELEMENT_SET_NO":999,"REV_AT_EPOCH":549,"BSTAR":-0.030705,"MEAN_MOTION_DOT":-0.01831707,"MEAN_MOTION_DDOT":0},{"OBJECT_NAME":"STARLINK-36852","OBJECT_ID":"2026-037B","EPOCH":"2026-03-24T12:00:01.999296","MEAN_MOTION":15.50490767,"ECCENTRICITY":0.0001454,"INCLINATION":42.9996,"RA_OF_ASC_NODE":109.7471,"ARG_OF_PERICENTER":271.7558,"MEAN_ANOMALY":151.9043,"EPHEMERIS_TYPE":0,"CLASSIFICATION_TYPE":"U","NORAD_CAT_ID":67933,"ELEMENT_SET_NO":999,"REV_AT_EPOCH":557,"BSTAR":0.001735,"MEAN_MOTION_DOT":0.0010246,"MEAN_MOTION_DDOT":0},{"OBJECT_NAME":"STARLINK-36861","OBJECT_ID":"2026-037C","EPOCH":"2026-03-24T12:00:01.999296","MEAN_MOTION":15.50506563,"ECCENTRICITY":0.0001062,"INCLINATION":42.9996,"RA_OF_ASC_NODE":108.8637,"ARG_OF_PERICENTER":273.6687,"MEAN_ANOMALY":147.5842,"EPHEMERIS_TYPE":0,"CLASSIFICATION_TYPE":"U","NORAD_CAT_ID":67934,"ELEMENT_SET_NO":999,"REV_AT_EPOCH":557,"BSTAR":0.0018312,"MEAN_MOTION_DOT":0.00108306,"MEAN_MOTION_DDOT":0},{"OBJECT_NAME":"STARLINK-36860","OBJECT_ID":"2026-037D","EPOCH":"2026-03-24T12:00:01.999296","MEAN_MOTION":15.5052525,"ECCENTRICITY":8.87e-5,"INCLINATION":43.0002,"RA_OF_ASC_NODE":109.3552,"ARG_OF_PERICENTER":305.6952,"MEAN_ANOMALY":276.8025,"EPHEMERIS_TYPE":0,"CLASSIFICATION_TYPE":"U","NORAD_CAT_ID":67935,"ELEMENT_SET_NO":999,"REV_AT_EPOCH":557,"BSTAR":0.0023826,"MEAN_MOTION_DOT":0.00141723,"MEAN_MOTION_DDOT":0},{"OBJECT_NAME":"STARLINK-36848","OBJECT_ID":"2026-037E","EPOCH":"2026-03-24T12:00:01.999296","MEAN_MOTION":15.50512268,"ECCENTRICITY":0.0001519,"INCLINATION":42.9998,"RA_OF_ASC_NODE":109.4985,"ARG_OF_PERICENTER":271.8771,"MEAN_ANOMALY":252.1059,"EPHEMERIS_TYPE":0,"CLASSIFICATION_TYPE":"U","NORAD_CAT_ID":67936,"ELEMENT_SET_NO":999,"REV_AT_EPOCH":557,"BSTAR":0.0016954,"MEAN_MOTION_DOT":0.00100165,"MEAN_MOTION_DDOT":0},{"OBJECT_NAME":"STARLINK-36370","OBJECT_ID":"2026-037F","EPOCH":"2026-03-24T12:00:01.999296","MEAN_MOTION":15.50507917,"ECCENTRICITY":0.0001738,"INCLINATION":43.0003,"RA_OF_ASC_NODE":109.2857,"ARG_OF_PERICENTER":288.2312,"MEAN_ANOMALY":322.5563,"EPHEMERIS_TYPE":0,"CLASSIFICATION_TYPE":"U","NORAD_CAT_ID":67937,"ELEMENT_SET_NO":999,"REV_AT_EPOCH":557,"BSTAR":0.0016841,"MEAN_MOTION_DOT":0.00099469,"MEAN_MOTION_DDOT":0},{"OBJECT_NAME":"STARLINK-36371","OBJECT_ID":"2026-037G","EPOCH":"2026-03-24T12:00:01.999296","MEAN_MOTION":15.50504773,"ECCENTRICITY":0.0001247,"INCLINATION":42.9998,"RA_OF_ASC_NODE":109.0016,"ARG_OF_PERICENTER":281.0011,"MEAN_ANOMALY":83.6682,"EPHEMERIS_TYPE":0,"CLASSIFICATION_TYPE":"U","NORAD_CAT_ID":67938,"ELEMENT_SET_NO":999,"REV_AT_EPOCH":557,"BSTAR":0.0017014,"MEAN_MOTION_DOT":0.00100496,"MEAN_MOTION_DDOT":0},{"OBJECT_NAME":"STARLINK-36246","OBJECT_ID":"2026-037H","EPOCH":"2026-03-24T12:00:01.999296","MEAN_MOTION":15.50513983,"ECCENTRICITY":0.0001331,"INCLINATION":43.0001,"RA_OF_ASC_NODE":109.4229,"ARG_OF_PERICENTER":290.6217,"MEAN_ANOMALY":263.7145,"EPHEMERIS_TYPE":0,"CLASSIFICATION_TYPE":"U","NORAD_CAT_ID":67939,"ELEMENT_SET_NO":999,"REV_AT_EPOCH":549,"BSTAR":0.0016696,"MEAN_MOTION_DOT":0.00098619,"MEAN_MOTION_DDOT":0},{"OBJECT_NAME":"STARLINK-36907","OBJECT_ID":"2026-037J","EPOCH":"2026-03-24T12:00:01.999296","MEAN_MOTION":15.52658519,"ECCENTRICITY":8.89e-5,"INCLINATION":43,"RA_OF_ASC_NODE":108.6343,"ARG_OF_PERICENTER":268.2518,"MEAN_ANOMALY":245.1265,"EPHEMERIS_TYPE":0,"CLASSIFICATION_TYPE":"U","NORAD_CAT_ID":67940,"ELEMENT_SET_NO":999,"REV_AT_EPOCH":557,"BSTAR":-0.036044,"MEAN_MOTION_DOT":-0.02032497,"MEAN_MOTION_DDOT":0},{"OBJECT_NAME":"STARLINK-36927","OBJECT_ID":"2026-037K","EPOCH":"2026-03-24T12:00:01.999296","MEAN_MOTION":15.50506119,"ECCENTRICITY":0.0001066,"INCLINATION":42.9996,"RA_OF_ASC_NODE":108.7955,"ARG_OF_PERICENTER":265.0724,"MEAN_ANOMALY":182.6528,"EPHEMERIS_TYPE":0,"CLASSIFICATION_TYPE":"U","NORAD_CAT_ID":67941,"ELEMENT_SET_NO":999,"REV_AT_EPOCH":557,"BSTAR":0.0018668,"MEAN_MOTION_DOT":0.00110443,"MEAN_MOTION_DDOT":0},{"OBJECT_NAME":"STARLINK-36914","OBJECT_ID":"2026-037L","EPOCH":"2026-03-24T12:00:01.999296","MEAN_MOTION":15.56733047,"ECCENTRICITY":0.0001043,"INCLINATION":43.0001,"RA_OF_ASC_NODE":108.4123,"ARG_OF_PERICENTER":277.2835,"MEAN_ANOMALY":325.9754,"EPHEMERIS_TYPE":0,"CLASSIFICATION_TYPE":"U","NORAD_CAT_ID":67942,"ELEMENT_SET_NO":999,"REV_AT_EPOCH":557,"BSTAR":-0.028428,"MEAN_MOTION_DOT":-0.01848954,"MEAN_MOTION_DDOT":0},{"OBJECT_NAME":"STARLINK-36851","OBJECT_ID":"2026-037M","EPOCH":"2026-03-24T12:00:01.999296","MEAN_MOTION":15.50452849,"ECCENTRICITY":0.0001432,"INCLINATION":42.9996,"RA_OF_ASC_NODE":108.7615,"ARG_OF_PERICENTER":311.8047,"MEAN_ANOMALY":149.8942,"EPHEMERIS_TYPE":0,"CLASSIFICATION_TYPE":"U","NORAD_CAT_ID":67943,"ELEMENT_SET_NO":999,"REV_AT_EPOCH":557,"BSTAR":0.0020233,"MEAN_MOTION_DOT":0.0011965,"MEAN_MOTION_DDOT":0},{"OBJECT_NAME":"STARLINK-36892","OBJECT_ID":"2026-037N","EPOCH":"2026-03-24T12:00:01.999296","MEAN_MOTION":15.51251557,"ECCENTRICITY":0.0001628,"INCLINATION":42.9996,"RA_OF_ASC_NODE":108.6879,"ARG_OF_PERICENTER":293.8554,"MEAN_ANOMALY":197.7658,"EPHEMERIS_TYPE":0,"CLASSIFICATION_TYPE":"U","NORAD_CAT_ID":67944,"ELEMENT_SET_NO":999,"REV_AT_EPOCH":557,"BSTAR":-0.017426,"MEAN_MOTION_DOT":-0.00959766,"MEAN_MOTION_DDOT":0},{"OBJECT_NAME":"STARLINK-36908","OBJECT_ID":"2026-037P","EPOCH":"2026-03-24T12:00:01.999296","MEAN_MOTION":15.52422711,"ECCENTRICITY":0.0001192,"INCLINATION":43,"RA_OF_ASC_NODE":108.6128,"ARG_OF_PERICENTER":281.4007,"MEAN_ANOMALY":240.4203,"EPHEMERIS_TYPE":0,"CLASSIFICATION_TYPE":"U","NORAD_CAT_ID":67945,"ELEMENT_SET_NO":999,"REV_AT_EPOCH":557,"BSTAR":-0.034299,"MEAN_MOTION_DOT":-0.01929399,"MEAN_MOTION_DDOT":0},{"OBJECT_NAME":"STARLINK-36909","OBJECT_ID":"2026-037Q","EPOCH":"2026-03-24T12:00:01.999296","MEAN_MOTION":15.58852559,"ECCENTRICITY":0.0001207,"INCLINATION":43.0001,"RA_OF_ASC_NODE":108.2371,"ARG_OF_PERICENTER":281.2898,"MEAN_ANOMALY":31.8337,"EPHEMERIS_TYPE":0,"CLASSIFICATION_TYPE":"U","NORAD_CAT_ID":67946,"ELEMENT_SET_NO":999,"REV_AT_EPOCH":558,"BSTAR":-0.026177,"MEAN_MOTION_DOT":-0.01845887,"MEAN_MOTION_DDOT":0},{"OBJECT_NAME":"STARLINK-36920","OBJECT_ID":"2026-037R","EPOCH":"2026-03-24T12:00:01.999296","MEAN_MOTION":15.50525407,"ECCENTRICITY":0.0001728,"INCLINATION":42.9999,"RA_OF_ASC_NODE":108.9006,"ARG_OF_PERICENTER":274.8965,"MEAN_ANOMALY":129.8963,"EPHEMERIS_TYPE":0,"CLASSIFICATION_TYPE":"U","NORAD_CAT_ID":67947,"ELEMENT_SET_NO":999,"REV_AT_EPOCH":558,"BSTAR":0.0022981,"MEAN_MOTION_DOT":0.00136592,"MEAN_MOTION_DDOT":0}]
